[
    {
        "OBJECT_NAME": "SL-3 R/B",
        "OBJECT_ID": "1983-010B",
        "EPOCH": "2026-05-01T22:08:20.818752",
        "MEAN_MOTION": 15.47918939,
        "ECCENTRICITY": 0.001546,
        "INCLINATION": 81.1002,
        "RA_OF_ASC_NODE": 296.8893,
        "ARG_OF_PERICENTER": 219.2541,
        "MEAN_ANOMALY": 140.7585,
        "EPHEMERIS_TYPE": 0,
        "CLASSIFICATION_TYPE": "U",
        "NORAD_CAT_ID": 13819,
        "ELEMENT_SET_NO": 999,
        "REV_AT_EPOCH": 36617,
        "BSTAR": 0.00028354,
        "MEAN_MOTION_DOT": 0.00014881,
        "MEAN_MOTION_DDOT": 0
    },
    {
        "OBJECT_NAME": "SL-3 R/B",
        "OBJECT_ID": "1983-075B",
        "EPOCH": "2026-05-02T10:57:26.536896",
        "MEAN_MOTION": 15.39624172,
        "ECCENTRICITY": 0.0022176,
        "INCLINATION": 97.6117,
        "RA_OF_ASC_NODE": 129.1217,
        "ARG_OF_PERICENTER": 41.8249,
        "MEAN_ANOMALY": 318.4686,
        "EPHEMERIS_TYPE": 0,
        "CLASSIFICATION_TYPE": "U",
        "NORAD_CAT_ID": 14208,
        "ELEMENT_SET_NO": 999,
        "REV_AT_EPOCH": 33842,
        "BSTAR": 0.000299,
        "MEAN_MOTION_DOT": 0.00011798,
        "MEAN_MOTION_DDOT": 0
    },
    {
        "OBJECT_NAME": "COSMOS 1536",
        "OBJECT_ID": "1984-013A",
        "EPOCH": "2026-05-02T06:58:46.452288",
        "MEAN_MOTION": 15.24545939,
        "ECCENTRICITY": 0.0016302,
        "INCLINATION": 82.5463,
        "RA_OF_ASC_NODE": 54.5309,
        "ARG_OF_PERICENTER": 93.5053,
        "MEAN_ANOMALY": 266.8049,
        "EPHEMERIS_TYPE": 0,
        "CLASSIFICATION_TYPE": "U",
        "NORAD_CAT_ID": 14699,
        "ELEMENT_SET_NO": 999,
        "REV_AT_EPOCH": 28078,
        "BSTAR": 0.00034999,
        "MEAN_MOTION_DOT": 8.679e-05,
        "MEAN_MOTION_DDOT": 0
    },
    {
        "OBJECT_NAME": "SL-14 R/B",
        "OBJECT_ID": "1984-027B",
        "EPOCH": "2026-05-02T07:01:40.087776",
        "MEAN_MOTION": 14.86027806,
        "ECCENTRICITY": 0.0018735,
        "INCLINATION": 82.544,
        "RA_OF_ASC_NODE": 194.7511,
        "ARG_OF_PERICENTER": 151.7501,
        "MEAN_ANOMALY": 208.4736,
        "EPHEMERIS_TYPE": 0,
        "CLASSIFICATION_TYPE": "U",
        "NORAD_CAT_ID": 14820,
        "ELEMENT_SET_NO": 999,
        "REV_AT_EPOCH": 25559,
        "BSTAR": 4.672e-05,
        "MEAN_MOTION_DOT": 4.34e-06,
        "MEAN_MOTION_DDOT": 0
    },
    {
        "OBJECT_NAME": "SL-8 R/B",
        "OBJECT_ID": "1985-006B",
        "EPOCH": "2026-05-02T08:42:43.896384",
        "MEAN_MOTION": 14.37815108,
        "ECCENTRICITY": 0.001727,
        "INCLINATION": 74.0445,
        "RA_OF_ASC_NODE": 162.3881,
        "ARG_OF_PERICENTER": 61.7261,
        "MEAN_ANOMALY": 309.1489,
        "EPHEMERIS_TYPE": 0,
        "CLASSIFICATION_TYPE": "U",
        "NORAD_CAT_ID": 15483,
        "ELEMENT_SET_NO": 999,
        "REV_AT_EPOCH": 16174,
        "BSTAR": 8.8648e-05,
        "MEAN_MOTION_DOT": 2.41e-06,
        "MEAN_MOTION_DDOT": 0
    },
    {
        "OBJECT_NAME": "SL-12 R/B(2)",
        "OBJECT_ID": "1985-042D",
        "EPOCH": "2026-05-02T07:39:27.057024",
        "MEAN_MOTION": 14.21996701,
        "ECCENTRICITY": 0.0033736,
        "INCLINATION": 71.1088,
        "RA_OF_ASC_NODE": 334.4265,
        "ARG_OF_PERICENTER": 39.5276,
        "MEAN_ANOMALY": 132.7159,
        "EPHEMERIS_TYPE": 0,
        "CLASSIFICATION_TYPE": "U",
        "NORAD_CAT_ID": 15772,
        "ELEMENT_SET_NO": 999,
        "REV_AT_EPOCH": 12201,
        "BSTAR": 5.5855e-05,
        "MEAN_MOTION_DOT": 7.7e-07,
        "MEAN_MOTION_DDOT": 0
    },
    {
        "OBJECT_NAME": "SL-14 R/B",
        "OBJECT_ID": "1985-069B",
        "EPOCH": "2026-05-01T23:48:19.412640",
        "MEAN_MOTION": 14.86481937,
        "ECCENTRICITY": 0.0019283,
        "INCLINATION": 82.5266,
        "RA_OF_ASC_NODE": 334.8207,
        "ARG_OF_PERICENTER": 20.3458,
        "MEAN_ANOMALY": 339.8522,
        "EPHEMERIS_TYPE": 0,
        "CLASSIFICATION_TYPE": "U",
        "NORAD_CAT_ID": 15945,
        "ELEMENT_SET_NO": 999,
        "REV_AT_EPOCH": 18075,
        "BSTAR": 4.3451e-05,
        "MEAN_MOTION_DOT": 4.1e-06,
        "MEAN_MOTION_DDOT": 0
    },
    {
        "OBJECT_NAME": "SL-16 R/B",
        "OBJECT_ID": "1985-097B",
        "EPOCH": "2026-05-02T11:05:32.772768",
        "MEAN_MOTION": 14.16605304,
        "ECCENTRICITY": 0.0007692,
        "INCLINATION": 71.0048,
        "RA_OF_ASC_NODE": 27.3443,
        "ARG_OF_PERICENTER": 191.2938,
        "MEAN_ANOMALY": 341.5439,
        "EPHEMERIS_TYPE": 0,
        "CLASSIFICATION_TYPE": "U",
        "NORAD_CAT_ID": 16182,
        "ELEMENT_SET_NO": 999,
        "REV_AT_EPOCH": 9484,
        "BSTAR": 4.711e-05,
        "MEAN_MOTION_DOT": 4.6e-07,
        "MEAN_MOTION_DDOT": 0
    },
    {
        "OBJECT_NAME": "SL-14 R/B",
        "OBJECT_ID": "1986-006B",
        "EPOCH": "2026-05-02T06:59:40.888608",
        "MEAN_MOTION": 14.86900518,
        "ECCENTRICITY": 0.0077978,
        "INCLINATION": 82.5292,
        "RA_OF_ASC_NODE": 209.2953,
        "ARG_OF_PERICENTER": 94.9916,
        "MEAN_ANOMALY": 266.0208,
        "EPHEMERIS_TYPE": 0,
        "CLASSIFICATION_TYPE": "U",
        "NORAD_CAT_ID": 16496,
        "ELEMENT_SET_NO": 999,
        "REV_AT_EPOCH": 15717,
        "BSTAR": 7.1567e-05,
        "MEAN_MOTION_DOT": 7.04e-06,
        "MEAN_MOTION_DDOT": 0
    },
    {
        "OBJECT_NAME": "COSMOS 1743",
        "OBJECT_ID": "1986-034A",
        "EPOCH": "2026-05-02T04:08:45.123072",
        "MEAN_MOTION": 15.63237473,
        "ECCENTRICITY": 0.000715,
        "INCLINATION": 82.532,
        "RA_OF_ASC_NODE": 17.506,
        "ARG_OF_PERICENTER": 89.1386,
        "MEAN_ANOMALY": 271.0692,
        "EPHEMERIS_TYPE": 0,
        "CLASSIFICATION_TYPE": "U",
        "NORAD_CAT_ID": 16719,
        "ELEMENT_SET_NO": 999,
        "REV_AT_EPOCH": 18859,
        "BSTAR": 0.00052873,
        "MEAN_MOTION_DOT": 0.00048647,
        "MEAN_MOTION_DDOT": 0
    },
    {
        "OBJECT_NAME": "SL-14 R/B",
        "OBJECT_ID": "1986-046B",
        "EPOCH": "2026-05-02T05:15:14.349312",
        "MEAN_MOTION": 14.85640254,
        "ECCENTRICITY": 0.0024381,
        "INCLINATION": 82.4848,
        "RA_OF_ASC_NODE": 29.607,
        "ARG_OF_PERICENTER": 53.4097,
        "MEAN_ANOMALY": 306.9357,
        "EPHEMERIS_TYPE": 0,
        "CLASSIFICATION_TYPE": "U",
        "NORAD_CAT_ID": 16792,
        "ELEMENT_SET_NO": 999,
        "REV_AT_EPOCH": 13435,
        "BSTAR": 5.3664e-05,
        "MEAN_MOTION_DOT": 4.92e-06,
        "MEAN_MOTION_DDOT": 0
    },
    {
        "OBJECT_NAME": "SL-14 R/B",
        "OBJECT_ID": "1986-055B",
        "EPOCH": "2026-05-02T07:09:04.910400",
        "MEAN_MOTION": 14.85688707,
        "ECCENTRICITY": 0.0019592,
        "INCLINATION": 82.5197,
        "RA_OF_ASC_NODE": 76.2687,
        "ARG_OF_PERICENTER": 150.5809,
        "MEAN_ANOMALY": 6.8016,
        "EPHEMERIS_TYPE": 0,
        "CLASSIFICATION_TYPE": "U",
        "NORAD_CAT_ID": 16882,
        "ELEMENT_SET_NO": 999,
        "REV_AT_EPOCH": 12732,
        "BSTAR": 5.4476e-05,
        "MEAN_MOTION_DOT": 4.98e-06,
        "MEAN_MOTION_DDOT": 0
    },
    {
        "OBJECT_NAME": "AJISAI (EGS)",
        "OBJECT_ID": "1986-061A",
        "EPOCH": "2026-05-02T10:43:36.167232",
        "MEAN_MOTION": 12.44516041,
        "ECCENTRICITY": 0.0011418,
        "INCLINATION": 50.0099,
        "RA_OF_ASC_NODE": 288.0466,
        "ARG_OF_PERICENTER": 64.6951,
        "MEAN_ANOMALY": 32.051,
        "EPHEMERIS_TYPE": 0,
        "CLASSIFICATION_TYPE": "U",
        "NORAD_CAT_ID": 16908,
        "ELEMENT_SET_NO": 999,
        "REV_AT_EPOCH": 47469,
        "BSTAR": -9.6789e-06,
        "MEAN_MOTION_DOT": -9.9e-07,
        "MEAN_MOTION_DDOT": 0
    }
]