SL-3 R/B                
1 13819U 83010B   26121.92246318  .00014881  00000+0  28354-3 0  9997
2 13819  81.1002 296.8893 0015460 219.2541 140.7585 15.47918939366170
SL-3 R/B                
1 14208U 83075B   26122.45655714  .00011798  00000+0  29900-3 0  9996
2 14208  97.6117 129.1217 0022176  41.8249 318.4686 15.39624172338423
COSMOS 1536             
1 14699U 84013A   26122.29081542  .00008679  00000+0  34999-3 0  9995
2 14699  82.5463  54.5309 0016302  93.5053 266.8049 15.24545939280789
SL-14 R/B               
1 14820U 84027B   26122.29282509  .00000434  00000+0  46720-4 0  9999
2 14820  82.5440 194.7511 0018735 151.7501 208.4736 14.86027806255590
SL-8 R/B                
1 15483U 85006B   26122.36300806  .00000241  00000+0  88648-4 0  9993
2 15483  74.0445 162.3881 0017270  61.7261 309.1489 14.37815108161747
SL-12 R/B(2)            
1 15772U 85042D   26122.31906316  .00000077  00000+0  55855-4 0  9998
2 15772  71.1088 334.4265 0033736  39.5276 132.7159 14.21996701122014
SL-14 R/B               
1 15945U 85069B   26121.99189135  .00000410  00000+0  43451-4 0  9994
2 15945  82.5266 334.8207 0019283  20.3458 339.8522 14.86481937180751
SL-16 R/B               
1 16182U 85097B   26122.46218487  .00000046  00000+0  47110-4 0  9996
2 16182  71.0048  27.3443 0007692 191.2938 341.5439 14.16605304 94844
SL-14 R/B               
1 16496U 86006B   26122.29144547  .00000704  00000+0  71567-4 0  9995
2 16496  82.5292 209.2953 0077978  94.9916 266.0208 14.86900518157179
COSMOS 1743             
1 16719U 86034A   26122.17274448  .00048647  00000+0  52873-3 0  9991
2 16719  82.5320  17.5060 0007150  89.1386 271.0692 15.63237473188592
SL-14 R/B               
1 16792U 86046B   26122.21891608  .00000492  00000+0  53664-4 0  9999
2 16792  82.4848  29.6070 0024381  53.4097 306.9357 14.85640254134359
SL-14 R/B               
1 16882U 86055B   26122.29797350  .00000498  00000+0  54476-4 0  9994
2 16882  82.5197  76.2687 0019592 150.5809   6.8016 14.85688707127329
AJISAI (EGS)            
1 16908U 86061A   26122.44694638 -.00000099  00000+0 -96789-5 0  9995
2 16908  50.0099 288.0466 0011418  64.6951  32.0510 12.44516041474698
